{
  "type": "FeatureCollection",
  "features": [
    {
      "type": "Feature",
      "properties": {
        "norad_id": 34088,
        "name": "IRIDIUM 33 DEB",
        "group": "iridium-33-debris",
        "lat": 60.4299979356738,
        "lon": 30.57602246772273,
        "alt_km": 584.2910768591664,
        "timestamp": "2025-12-26T23:26:42.509176+00:00",
        "meta_object_name": "IRIDIUM 33 DEB",
        "meta_object_id": "1997-051CX",
        "meta_epoch": "2025-12-26T14:04:54.130368",
        "meta_mean_motion": 14.92012615,
        "meta_eccentricity": 0.000718,
        "meta_inclination": 86.3846,
        "meta_ra_of_asc_node": 24.3573,
        "meta_arg_of_pericenter": 134.1016,
        "meta_mean_anomaly": 352.4907,
        "meta_ephemeris_type": 0,
        "meta_classification_type": "U",
        "meta_norad_cat_id": 34088,
        "meta_element_set_no": 999,
        "meta_rev_at_epoch": 88948,
        "meta_bstar": 0.0024249,
        "meta_mean_motion_dot": 0.00024675,
        "meta_mean_motion_ddot": 0,
        "tle_line1": "1 34088U 97051CX  25360.58673762  .00024675  00000+0  24249-2 0  9991",
        "tle_line2": "2 34088  86.3846  24.3573 0007180 134.1016 352.4907 14.92012615889484"
      },
      "geometry": {
        "type": "Point",
        "coordinates": [
          30.57602246772273,
          60.4299979356738
        ]
      }
    },
    {
      "type": "Feature",
      "properties": {
        "norad_id": 34091,
        "name": "IRIDIUM 33 DEB",
        "group": "iridium-33-debris",
        "lat": 53.01685178839863,
        "lon": -124.56641971847152,
        "alt_km": 625.7759022472565,
        "timestamp": "2025-12-26T23:26:42.509185+00:00",
        "meta_object_name": "IRIDIUM 33 DEB",
        "meta_object_id": "1997-051DA",
        "meta_epoch": "2025-12-26T03:26:13.490880",
        "meta_mean_motion": 14.82802245,
        "meta_eccentricity": 0.00343844,
        "meta_inclination": 86.3408,
        "meta_ra_of_asc_node": 60.6907,
        "meta_arg_of_pericenter": 245.3053,
        "meta_mean_anomaly": 114.4589,
        "meta_ephemeris_type": 0,
        "meta_classification_type": "U",
        "meta_norad_cat_id": 34091,
        "meta_element_set_no": 999,
        "meta_rev_at_epoch": 88065,
        "meta_bstar": 0.0044294719,
        "meta_mean_motion_dot": 0.00036356,
        "meta_mean_motion_ddot": 0,
        "tle_line1": "1 34091U 97051DA  25360.14321170  .00036356  00000+0  44295-2 0  9992",
        "tle_line2": "2 34091  86.3408  60.6907 0034384 245.3053 114.4589 14.82802245880655"
      },
      "geometry": {
        "type": "Point",
        "coordinates": [
          -124.56641971847152,
          53.01685178839863
        ]
      }
    },
    {
      "type": "Feature",
      "properties": {
        "norad_id": 34097,
        "name": "IRIDIUM 33 DEB",
        "group": "iridium-33-debris",
        "lat": 74.57580210501845,
        "lon": 161.1863595308069,
        "alt_km": 818.3010490284332,
        "timestamp": "2025-12-26T23:26:42.509194+00:00",
        "meta_object_name": "IRIDIUM 33 DEB",
        "meta_object_id": "1997-051DG",
        "meta_epoch": "2025-12-26T09:34:04.478016",
        "meta_mean_motion": 14.34889238,
        "meta_eccentricity": 0.0081225,
        "meta_inclination": 86.2008,
        "meta_ra_of_asc_node": 355.3778,
        "meta_arg_of_pericenter": 317.4049,
        "meta_mean_anomaly": 42.0864,
        "meta_ephemeris_type": 0,
        "meta_classification_type": "U",
        "meta_norad_cat_id": 34097,
        "meta_element_set_no": 999,
        "meta_rev_at_epoch": 87315,
        "meta_bstar": 0.0016349,
        "meta_mean_motion_dot": 4.839e-05,
        "meta_mean_motion_ddot": 0,
        "tle_line1": "1 34097U 97051DG  25360.39866294  .00004839  00000+0  16349-2 0  9996",
        "tle_line2": "2 34097  86.2008 355.3778 0081225 317.4049  42.0864 14.34889238873151"
      },
      "geometry": {
        "type": "Point",
        "coordinates": [
          161.1863595308069,
          74.57580210501845
        ]
      }
    },
    {
      "type": "Feature",
      "properties": {
        "norad_id": 34145,
        "name": "IRIDIUM 33 DEB",
        "group": "iridium-33-debris",
        "lat": 37.55125425441492,
        "lon": -30.895491979945515,
        "alt_km": 709.1428896013877,
        "timestamp": "2025-12-26T23:26:42.509203+00:00",
        "meta_object_name": "IRIDIUM 33 DEB",
        "meta_object_id": "1997-051DY",
        "meta_epoch": "2025-12-26T14:56:53.035584",
        "meta_mean_motion": 14.42393887,
        "meta_eccentricity": 0.0055399,
        "meta_inclination": 86.2128,
        "meta_ra_of_asc_node": 326.3433,
        "meta_arg_of_pericenter": 49.7595,
        "meta_mean_anomaly": 310.8432,
        "meta_ephemeris_type": 0,
        "meta_classification_type": "U",
        "meta_norad_cat_id": 34145,
        "meta_element_set_no": 999,
        "meta_rev_at_epoch": 87838,
        "meta_bstar": 0.0014608,
        "meta_mean_motion_dot": 4.939e-05,
        "meta_mean_motion_ddot": 0,
        "tle_line1": "1 34145U 97051DY  25360.62283606  .00004939  00000+0  14608-2 0  9993",
        "tle_line2": "2 34145  86.2128 326.3433 0055399  49.7595 310.8432 14.42393887878384"
      },
      "geometry": {
        "type": "Point",
        "coordinates": [
          -30.895491979945515,
          37.55125425441492
        ]
      }
    },
    {
      "type": "Feature",
      "properties": {
        "norad_id": 34146,
        "name": "IRIDIUM 33 DEB",
        "group": "iridium-33-debris",
        "lat": 20.89180144069545,
        "lon": -15.068298169652088,
        "alt_km": 745.385951798633,
        "timestamp": "2025-12-26T23:26:42.509212+00:00",
        "meta_object_name": "IRIDIUM 33 DEB",
        "meta_object_id": "1997-051DZ",
        "meta_epoch": "2025-12-26T05:10:53.931072",
        "meta_mean_motion": 14.49135058,
        "meta_eccentricity": 0.0027049,
        "meta_inclination": 86.2845,
        "meta_ra_of_asc_node": 343.8464,
        "meta_arg_of_pericenter": 175.3009,
        "meta_mean_anomaly": 198.4852,
        "meta_ephemeris_type": 0,
        "meta_classification_type": "U",
        "meta_norad_cat_id": 34146,
        "meta_element_set_no": 999,
        "meta_rev_at_epoch": 88302,
        "meta_bstar": 0.00092782,
        "meta_mean_motion_dot": 3.563e-05,
        "meta_mean_motion_ddot": 0,
        "tle_line1": "1 34146U 97051DZ  25360.21590198  .00003563  00000+0  92782-3 0  9998",
        "tle_line2": "2 34146  86.2845 343.8464 0027049 175.3009 198.4852 14.49135058883020"
      },
      "geometry": {
        "type": "Point",
        "coordinates": [
          -15.068298169652088,
          20.89180144069545
        ]
      }
    },
    {
      "type": "Feature",
      "properties": {
        "norad_id": 34159,
        "name": "IRIDIUM 33 DEB",
        "group": "iridium-33-debris",
        "lat": -84.17397849465148,
        "lon": 3.4353842638285745,
        "alt_km": 755.7749152407387,
        "timestamp": "2025-12-26T23:26:42.509221+00:00",
        "meta_object_name": "IRIDIUM 33 DEB",
        "meta_object_id": "1997-051EN",
        "meta_epoch": "2025-12-26T02:08:20.180544",
        "meta_mean_motion": 14.38525461,
        "meta_eccentricity": 0.00262795,
        "meta_inclination": 86.3493,
        "meta_ra_of_asc_node": 42.5483,
        "meta_arg_of_pericenter": 240.6679,
        "meta_mean_anomaly": 119.1893,
        "meta_ephemeris_type": 0,
        "meta_classification_type": "U",
        "meta_norad_cat_id": 34159,
        "meta_element_set_no": 999,
        "meta_rev_at_epoch": 88151,
        "meta_bstar": 0.00037825721,
        "meta_mean_motion_dot": 1.179e-05,
        "meta_mean_motion_ddot": 0,
        "tle_line1": "1 34159U 97051EN  25360.08912246  .00001179  00000+0  37826-3 0  9998",
        "tle_line2": "2 34159  86.3493  42.5483 0026279 240.6679 119.1893 14.38525461881517"
      },
      "geometry": {
        "type": "Point",
        "coordinates": [
          3.4353842638285745,
          -84.17397849465148
        ]
      }
    },
    {
      "type": "Feature",
      "properties": {
        "norad_id": 34350,
        "name": "IRIDIUM 33 DEB",
        "group": "iridium-33-debris",
        "lat": -64.03012474633701,
        "lon": -10.948593605848838,
        "alt_km": 763.2157259380347,
        "timestamp": "2025-12-26T23:26:42.509230+00:00",
        "meta_object_name": "IRIDIUM 33 DEB",
        "meta_object_id": "1997-051ES",
        "meta_epoch": "2025-12-26T11:11:35.511072",
        "meta_mean_motion": 14.45418943,
        "meta_eccentricity": 0.0023531,
        "meta_inclination": 86.3274,
        "meta_ra_of_asc_node": 356.8502,
        "meta_arg_of_pericenter": 93.2383,
        "meta_mean_anomaly": 67.9711,
        "meta_ephemeris_type": 0,
        "meta_classification_type": "U",
        "meta_norad_cat_id": 34350,
        "meta_element_set_no": 999,
        "meta_rev_at_epoch": 88491,
        "meta_bstar": 0.00036255,
        "meta_mean_motion_dot": 1.3e-05,
        "meta_mean_motion_ddot": 0,
        "tle_line1": "1 34350U 97051ES  25360.46638323  .00001300  00000+0  36255-3 0  9995",
        "tle_line2": "2 34350  86.3274 356.8502 0023531  93.2383  67.9711 14.45418943884912"
      },
      "geometry": {
        "type": "Point",
        "coordinates": [
          -10.948593605848838,
          -64.03012474633701
        ]
      }
    }
  ]
}